
    {
        "ARG_OF_PERICENTER": 54.4226,
        "BSTAR": 0.00024913422,
        "CLASSIFICATION_TYPE": "U",
        "ECCENTRICITY": 0.01063013,
        "ELEMENT_SET_NO": 999,
        "EPHEMERIS_TYPE": 0,
        "EPOCH": "2026-06-19T12:27:30.145824",
        "INCLINATION": 64.7632,
        "MEAN_ANOMALY": 306.6741,
        "MEAN_MOTION": 15.0231392,
        "MEAN_MOTION_DDOT": 0,
        "MEAN_MOTION_DOT": 3.541e-05,
        "NORAD_CAT_ID": 40975,
        "OBJECT_ID": "2015-058M",
        "OBJECT_NAME": "SNAP-3 JIMI",
        "RA_OF_ASC_NODE": 212.3943,
        "REV_AT_EPOCH": 11457
    },
    {
        "ARG_OF_PERICENTER": 59.9967,
        "BSTAR": 0.00016129177,
        "CLASSIFICATION_TYPE": "U",
        "ECCENTRICITY": 0.01308632,
        "ELEMENT_SET_NO": 999,
        "EPHEMERIS_TYPE": 0,
        "EPOCH": "2026-06-19T14:43:09.766272",
        "INCLINATION": 64.7742,
        "MEAN_ANOMALY": 301.4055,
        "MEAN_MOTION": 14.89230492,
        "MEAN_MOTION_DDOT": 0,
        "MEAN_MOTION_DOT": 1.619e-05,
        "NORAD_CAT_ID": 40976,
        "OBJECT_ID": "2015-058N",
        "OBJECT_NAME": "PROPCUBE 1 (FLORA)",
        "RA_OF_ASC_NODE": 287.7167,
        "REV_AT_EPOCH": 11662
    },
    {
        "ARG_OF_PERICENTER": 57.2109,
        "BSTAR": 0.00020356246,
        "CLASSIFICATION_TYPE": "U",
        "ECCENTRICITY": 0.01193863,
        "ELEMENT_SET_NO": 999,
        "EPHEMERIS_TYPE": 0,
        "EPOCH": "2026-06-19T12:24:21.080160",
        "INCLINATION": 64.7726,
        "MEAN_ANOMALY": 304.0438,
        "MEAN_MOTION": 14.94027166,
        "MEAN_MOTION_DDOT": 0,
        "MEAN_MOTION_DOT": 2.325e-05,
        "NORAD_CAT_ID": 40977,
        "OBJECT_ID": "2015-058P",
        "OBJECT_NAME": "SINOD-D 3",
        "RA_OF_ASC_NODE": 268.5443,
        "REV_AT_EPOCH": 11510
    },
    {
        "ARG_OF_PERICENTER": 284.0603,
        "BSTAR": 0.00093801748,
        "CLASSIFICATION_TYPE": "U",
        "ECCENTRICITY": 0.00060764,
        "ELEMENT_SET_NO": 999,
        "EPHEMERIS_TYPE": 0,
        "EPOCH": "2026-06-19T01:29:50.572896",
        "INCLINATION": 30.9841,
        "MEAN_ANOMALY": 75.9383,
        "MEAN_MOTION": 15.97473078,
        "MEAN_MOTION_DDOT": 7.3851484e-05,
        "MEAN_MOTION_DOT": 0.00441316,
        "NORAD_CAT_ID": 41340,
        "OBJECT_ID": "2016-012D",
        "OBJECT_NAME": "HORYU-4",
        "RA_OF_ASC_NODE": 65.2425,
        "REV_AT_EPOCH": 57111
    },
    {
        "ARG_OF_PERICENTER": 24.5682,
        "BSTAR": 0.00066535974,
        "CLASSIFICATION_TYPE": "U",
        "ECCENTRICITY": 0.00040007,
        "ELEMENT_SET_NO": 999,
        "EPHEMERIS_TYPE": 0,
        "EPOCH": "2026-06-19T11:44:40.378272",
        "INCLINATION": 97.9881,
        "MEAN_ANOMALY": 335.576,
        "MEAN_MOTION": 15.54868993,
        "MEAN_MOTION_DDOT": 0,
        "MEAN_MOTION_DOT": 0.0004448,
        "NORAD_CAT_ID": 41849,
        "OBJECT_ID": "2016-067B",
        "OBJECT_NAME": "RAVAN",
        "RA_OF_ASC_NODE": 60.3266,
        "REV_AT_EPOCH": 52805
    },
    {
        "ARG_OF_PERICENTER": 128.9694,
        "BSTAR": 0.00020662878,
        "CLASSIFICATION_TYPE": "U",
        "ECCENTRICITY": 0.00010751,
        "ELEMENT_SET_NO": 999,
        "EPHEMERIS_TYPE": 0,
        "EPOCH": "2026-06-19T13:51:35.582688",
        "INCLINATION": 98.0668,
        "MEAN_ANOMALY": 231.1635,
        "MEAN_MOTION": 15.19701017,
        "MEAN_MOTION_DDOT": 0,
        "MEAN_MOTION_DOT": 4.334e-05,
        "NORAD_CAT_ID": 41850,
        "OBJECT_ID": "2016-067C",
        "OBJECT_NAME": "CELTEE 1",
        "RA_OF_ASC_NODE": 37.3072,
        "REV_AT_EPOCH": 52624
    },
    {
        "ARG_OF_PERICENTER": 108.2922,
        "BSTAR": 0.00012166203,
        "CLASSIFICATION_TYPE": "U",
        "ECCENTRICITY": 0.00169524,
        "ELEMENT_SET_NO": 999,
        "EPHEMERIS_TYPE": 0,
        "EPOCH": "2026-06-19T12:45:29.642976",
        "INCLINATION": 98.0697,
        "MEAN_ANOMALY": 252.0152,
        "MEAN_MOTION": 15.09667878,
        "MEAN_MOTION_DDOT": 0,
        "MEAN_MOTION_DOT": 1.893e-05,
        "NORAD_CAT_ID": 41851,
        "OBJECT_ID": "2016-067D",
        "OBJECT_NAME": "OPTICUBE 04",
        "RA_OF_ASC_NODE": 22.9376,
        "REV_AT_EPOCH": 52552
    },
    {
        "ARG_OF_PERICENTER": 117.5198,
        "BSTAR": 0.00025539429,
        "CLASSIFICATION_TYPE": "U",
        "ECCENTRICITY": 0.00048385,
        "ELEMENT_SET_NO": 999,
        "EPHEMERIS_TYPE": 0,
        "EPOCH": "2026-06-19T14:01:21.992448",
        "INCLINATION": 98.0674,
        "MEAN_ANOMALY": 242.6529,
        "MEAN_MOTION": 15.24424989,
        "MEAN_MOTION_DDOT": 0,
        "MEAN_MOTION_DOT": 6.185e-05,
        "NORAD_CAT_ID": 41852,
        "OBJECT_ID": "2016-067E",
        "OBJECT_NAME": "AEROCUBE 8D",
        "RA_OF_ASC_NODE": 40.9374,
        "REV_AT_EPOCH": 52643
    },
    {
        "ARG_OF_PERICENTER": 63.7296,
        "BSTAR": 0.00023976403,
        "CLASSIFICATION_TYPE": "U",
        "ECCENTRICITY": 0.00065294,
        "ELEMENT_SET_NO": 999,
        "EPHEMERIS_TYPE": 0,
        "EPOCH": "2026-06-19T02:00:44.048160",
        "INCLINATION": 98.0544,
        "MEAN_ANOMALY": 296.461,
        "MEAN_MOTION": 15.24668047,
        "MEAN_MOTION_DDOT": 0,
        "MEAN_MOTION_DOT": 5.845e-05,
        "NORAD_CAT_ID": 41853,
        "OBJECT_ID": "2016-067F",
        "OBJECT_NAME": "AEROCUBE 8C",
        "RA_OF_ASC_NODE": 37.6237,
        "REV_AT_EPOCH": 52635
    },
    {
        "ARG_OF_PERICENTER": 103.5919,
        "BSTAR": 0.00021163072,
        "CLASSIFICATION_TYPE": "U",
        "ECCENTRICITY": 0.00145167,
        "ELEMENT_SET_NO": 999,
        "EPHEMERIS_TYPE": 0,
        "EPOCH": "2026-06-19T09:17:20.016672",
        "INCLINATION": 97.4075,
        "MEAN_ANOMALY": 256.6926,
        "MEAN_MOTION": 15.06310794,
        "MEAN_MOTION_DDOT": 0,
        "MEAN_MOTION_DOT": 3.058e-05,
        "NORAD_CAT_ID": 42846,
        "OBJECT_ID": "2017-042X",
        "OBJECT_NAME": "CORVUS BC2",
        "RA_OF_ASC_NODE": 331.6508,
        "REV_AT_EPOCH": 48739
    },
    {
        "ARG_OF_PERICENTER": 82.2066,
        "BSTAR": 0.00017415857,
        "CLASSIFICATION_TYPE": "U",
        "ECCENTRICITY": 0.00134969,
        "ELEMENT_SET_NO": 999,
        "EPHEMERIS_TYPE": 0,
        "EPOCH": "2026-06-19T12:20:30.494112",
        "INCLINATION": 97.4109,
        "MEAN_ANOMALY": 278.0693,
        "MEAN_MOTION": 15.06479118,
        "MEAN_MOTION_DDOT": 0,
        "MEAN_MOTION_DOT": 2.516e-05,
        "NORAD_CAT_ID": 42847,
        "OBJECT_ID": "2017-042Y",
        "OBJECT_NAME": "CORVUS BC1",
        "RA_OF_ASC_NODE": 332.5888,
        "REV_AT_EPOCH": 48744
    },
    {
        "ARG_OF_PERICENTER": 265.6718,
        "BSTAR": 0.00039819278,
        "CLASSIFICATION_TYPE": "U",
        "ECCENTRICITY": 0.0104988,
        "ELEMENT_SET_NO": 999,
        "EPHEMERIS_TYPE": 0,
        "EPOCH": "2026-06-19T04:54:34.853184",
        "INCLINATION": 97.4615,
        "MEAN_ANOMALY": 93.2521,
        "MEAN_MOTION": 15.32154743,
        "MEAN_MOTION_DDOT": 0,
        "MEAN_MOTION_DOT": 0.0001464,
        "NORAD_CAT_ID": 43016,
        "OBJECT_ID": "2017-073D",
        "OBJECT_NAME": "MAKERSAT 0",
        "RA_OF_ASC_NODE": 52.7389,
        "REV_AT_EPOCH": 46677
    }