SNAP-3 JIMI             
1 40975U 15058M   26170.51909891  .00003541  00000+0  24913-3 0  9996
2 40975  64.7632 212.3943 0106301  54.4226 306.6741 15.02313920114574
PROPCUBE 1 (FLORA)      
1 40976U 15058N   26170.61330748  .00001619  00000+0  16129-3 0  9991
2 40976  64.7742 287.7167 0130863  59.9967 301.4055 14.89230492116628
SINOD-D 3               
1 40977U 15058P   26170.51691065  .00002325  00000+0  20356-3 0  9995
2 40977  64.7726 268.5443 0119386  57.2109 304.0438 14.94027166115105
HORYU-4                 
1 41340U 16012D   26170.06239089  .00441316  73851-4  93802-3 0  9997
2 41340  30.9841  65.2425 0006076 284.0603  75.9383 15.97473078571116
RAVAN                   
1 41849U 16067B   26170.48935623  .00044480  00000+0  66536-3 0  9990
2 41849  97.9881  60.3266 0004000  24.5682 335.5760 15.54868993528051
CELTEE 1                
1 41850U 16067C   26170.57749517  .00004334  00000+0  20663-3 0  9992
2 41850  98.0668  37.3072 0001075 128.9694 231.1635 15.19701017526243
OPTICUBE 04             
1 41851U 16067D   26170.53159309  .00001893  00000+0  12166-3 0  9999
2 41851  98.0697  22.9376 0016952 108.2922 252.0152 15.09667878525529
AEROCUBE 8D             
1 41852U 16067E   26170.58428232  .00006185  00000+0  25539-3 0  9996
2 41852  98.0674  40.9374 0004838 117.5198 242.6529 15.24424989526436
AEROCUBE 8C             
1 41853U 16067F   26170.08384315  .00005845  00000+0  23976-3 0  9990
2 41853  98.0544  37.6237 0006529  63.7296 296.4610 15.24668047526358
CORVUS BC2              
1 42846U 17042X   26170.38703723  .00003058  00000+0  21163-3 0  9998
2 42846  97.4075 331.6508 0014516 103.5919 256.6926 15.06310794487392
CORVUS BC1              
1 42847U 17042Y   26170.51424183  .00002516  00000+0  17416-3 0  9998
2 42847  97.4109 332.5888 0013496  82.2066 278.0693 15.06479118487445
MAKERSAT 0              
1 43016U 17073D   26170.20457006  .00014640  00000+0  39819-3 0  9999
2 43016  97.4615  52.7389 0104988 265.6718  93.2521 15.32154743466774
